{"type": "FeatureCollection", "features": [ {"type": "Feature", "properties": {"norad_id": 17070, "name": "POLAR BEAR", "group": "nnss", "lat": 23.20713539759511, "lon": -176.37721763384494, "alt_km": 971.4595833517596, "timestamp": "2025-12-20T14:38:02.238512+00:00", "meta": {"OBJECT_NAME": "POLAR BEAR", "OBJECT_ID": "1986-088A", "EPOCH": "2025-12-20T01:20:19.536288", "MEAN_MOTION": 13.75252273, "ECCENTRICITY": 0.00412627, "INCLINATION": 89.617, "RA_OF_ASC_NODE": 183.4808, "ARG_OF_PERICENTER": 98.1805, "MEAN_ANOMALY": 64.6168, "EPHEMERIS_TYPE": 0, "CLASSIFICATION_TYPE": "U", "NORAD_CAT_ID": 17070, "ELEMENT_SET_NO": 999, "REV_AT_EPOCH": 96079, "BSTAR": 9.2170803e-05, "MEAN_MOTION_DOT": 1e-06, "MEAN_MOTION_DDOT": 0}, "tle": {"line1": "1 17070U 86088A   25354.05578167  .00000100  00000+0  92171-4 0  9997", "line2": "2 17070  89.6170 183.4808 0041262  98.1805  64.6168 13.75252273960795"}}, "geometry": {"type": "Point", "coordinates": [-176.37721763384494, 23.20713539759511]}}, {"type": "Feature", "properties": {"norad_id": 18361, "name": "OSCAR 27", "group": "nnss", "lat": 38.23440672763251, "lon": -100.13835605360605, "alt_km": 1048.3104588713322, "timestamp": "2025-12-20T14:38:02.238523+00:00", "meta": {"OBJECT_NAME": "OSCAR 27", "OBJECT_ID": "1987-080A", "EPOCH": "2025-12-20T04:59:48.117120", "MEAN_MOTION": 13.44908124, "ECCENTRICITY": 0.01035192, "INCLINATION": 90.3741, "RA_OF_ASC_NODE": 79.5517, "ARG_OF_PERICENTER": 202.253, "MEAN_ANOMALY": 157.4109, "EPHEMERIS_TYPE": 0, "CLASSIFICATION_TYPE": "U", "NORAD_CAT_ID": 18361, "ELEMENT_SET_NO": 999, "REV_AT_EPOCH": 87657, "BSTAR": 0.00014474037, "MEAN_MOTION_DOT": 9.6e-07, "MEAN_MOTION_DDOT": 0}, "tle": {"line1": "1 18361U 87080A   25354.20819580  .00000096  00000+0  14474-3 0  9991", "line2": "2 18361  90.3741  79.5517 0103519 202.2530 157.4109 13.44908124876578"}}, "geometry": {"type": "Point", "coordinates": [-100.13835605360605, 38.23440672763251]}}, {"type": "Feature", "properties": {"norad_id": 18362, "name": "OSCAR 29", "group": "nnss", "lat": 39.18157879814151, "lon": -99.66786418808229, "alt_km": 1080.334299557927, "timestamp": "2025-12-20T14:38:02.238533+00:00", "meta": {"OBJECT_NAME": "OSCAR 29", "OBJECT_ID": "1987-080B", "EPOCH": "2025-12-20T05:08:03.659136", "MEAN_MOTION": 13.44449616, "ECCENTRICITY": 0.01043765, "INCLINATION": 90.3751, "RA_OF_ASC_NODE": 80.0114, "ARG_OF_PERICENTER": 225.4939, "MEAN_ANOMALY": 161.7997, "EPHEMERIS_TYPE": 0, "CLASSIFICATION_TYPE": "U", "NORAD_CAT_ID": 18362, "ELEMENT_SET_NO": 999, "REV_AT_EPOCH": 87610, "BSTAR": 0.00012395438, "MEAN_MOTION_DOT": 8.2e-07, "MEAN_MOTION_DDOT": 0}, "tle": {"line1": "1 18362U 87080B   25354.21393124  .00000082  00000+0  12395-3 0  9999", "line2": "2 18362  90.3751  80.0114 0104376 225.4939 161.7997 13.44449616876100"}}, "geometry": {"type": "Point", "coordinates": [-99.66786418808229, 39.18157879814151]}}, {"type": "Feature", "properties": {"norad_id": 19070, "name": "OSCAR 23", "group": "nnss", "lat": 13.717573747366444, "lon": -163.28525326161787, "alt_km": 1014.2166576713698, "timestamp": "2025-12-20T14:38:02.238544+00:00", "meta": {"OBJECT_NAME": "OSCAR 23", "OBJECT_ID": "1988-033A", "EPOCH": "2025-12-20T01:17:13.826400", "MEAN_MOTION": 13.27788394, "ECCENTRICITY": 0.01901347, "INCLINATION": 90.3204, "RA_OF_ASC_NODE": 16.6192, "ARG_OF_PERICENTER": 159.6147, "MEAN_ANOMALY": 229.5476, "EPHEMERIS_TYPE": 0, "CLASSIFICATION_TYPE": "U", "NORAD_CAT_ID": 19070, "ELEMENT_SET_NO": 999, "REV_AT_EPOCH": 82350, "BSTAR": 0.00018124399, "MEAN_MOTION_DOT": 9.9e-07, "MEAN_MOTION_DDOT": 0}, "tle": {"line1": "1 19070U 88033A   25354.05363225  .00000099  00000+0  18124-3 0  9990", "line2": "2 19070  90.3204  16.6192 0190134 159.6147 229.5476 13.27788394823508"}}, "geometry": {"type": "Point", "coordinates": [-163.28525326161787, 13.717573747366444]}}, {"type": "Feature", "properties": {"norad_id": 19071, "name": "OSCAR 32", "group": "nnss", "lat": -77.6373490975432, "lon": 18.234440406907417, "alt_km": 1265.4708805040682, "timestamp": "2025-12-20T14:38:02.238554+00:00", "meta": {"OBJECT_NAME": "OSCAR 32", "OBJECT_ID": "1988-033B", "EPOCH": "2025-12-20T00:43:02.305056", "MEAN_MOTION": 13.27955116, "ECCENTRICITY": 0.01889142, "INCLINATION": 90.321, "RA_OF_ASC_NODE": 16.7508, "ARG_OF_PERICENTER": 146.5881, "MEAN_ANOMALY": 243.8277, "EPHEMERIS_TYPE": 0, "CLASSIFICATION_TYPE": "U", "NORAD_CAT_ID": 19071, "ELEMENT_SET_NO": 999, "REV_AT_EPOCH": 82362, "BSTAR": 0.00013088103, "MEAN_MOTION_DOT": 7.5e-07, "MEAN_MOTION_DDOT": 0}, "tle": {"line1": "1 19071U 88033B   25354.02988779  .00000075  00000+0  13088-3 0  9993", "line2": "2 19071  90.3210  16.7508 0188914 146.5881 243.8277 13.27955116823620"}}, "geometry": {"type": "Point", "coordinates": [18.234440406907417, -77.6373490975432]}}, {"type": "Feature", "properties": {"norad_id": 19223, "name": "NOVA 2", "group": "nnss", "lat": -24.061881184487873, "lon": 78.25689141663916, "alt_km": 1157.6275368592733, "timestamp": "2025-12-20T14:38:02.238564+00:00", "meta": {"OBJECT_NAME": "NOVA 2", "OBJECT_ID": "1988-052A", "EPOCH": "2025-12-20T05:57:01.334304", "MEAN_MOTION": 13.22936572, "ECCENTRICITY": 0.00299518, "INCLINATION": 89.9869, "RA_OF_ASC_NODE": 78.2632, "ARG_OF_PERICENTER": 356.1963, "MEAN_ANOMALY": 57.785, "EPHEMERIS_TYPE": 0, "CLASSIFICATION_TYPE": "U", "NORAD_CAT_ID": 19223, "ELEMENT_SET_NO": 999, "REV_AT_EPOCH": 81047, "BSTAR": 8.6003898e-05, "MEAN_MOTION_DOT": 4.5e-07, "MEAN_MOTION_DDOT": 0}, "tle": {"line1": "1 19223U 88052A   25354.24793211  .00000045  00000+0  86004-4 0  9998", "line2": "2 19223  89.9869  78.2632 0029951 356.1963  57.7850 13.22936572810477"}}, "geometry": {"type": "Point", "coordinates": [78.25689141663916, -24.061881184487873]}}, {"type": "Feature", "properties": {"norad_id": 19419, "name": "OSCAR 25", "group": "nnss", "lat": -69.91235286286344, "lon": -159.82281255208042, "alt_km": 1043.447431620736, "timestamp": "2025-12-20T14:38:02.238574+00:00", "meta": {"OBJECT_NAME": "OSCAR 25", "OBJECT_ID": "1988-074A", "EPOCH": "2025-12-20T02:58:00.786144", "MEAN_MOTION": 13.42624651, "ECCENTRICITY": 0.00948435, "INCLINATION": 90.0339, "RA_OF_ASC_NODE": 20.2683, "ARG_OF_PERICENTER": 224.454, "MEAN_ANOMALY": 196.6413, "EPHEMERIS_TYPE": 0, "CLASSIFICATION_TYPE": "U", "NORAD_CAT_ID": 19419, "ELEMENT_SET_NO": 999, "REV_AT_EPOCH": 82739, "BSTAR": 0.00013431883, "MEAN_MOTION_DOT": 8.7e-07, "MEAN_MOTION_DDOT": 0}, "tle": {"line1": "1 19419U 88074A   25354.12362021  .00000087  00000+0  13432-3 0  9997", "line2": "2 19419  90.0339  20.2683 0094843 224.4540 196.6413 13.42624651827393"}}, "geometry": {"type": "Point", "coordinates": [-159.82281255208042, -69.91235286286344]}}, {"type": "Feature", "properties": {"norad_id": 19420, "name": "OSCAR 31", "group": "nnss", "lat": 48.93996246339769, "lon": -159.33822461460542, "alt_km": 1090.0556977745255, "timestamp": "2025-12-20T14:38:02.238584+00:00", "meta": {"OBJECT_NAME": "OSCAR 31", "OBJECT_ID": "1988-074B", "EPOCH": "2025-12-20T01:35:37.066272", "MEAN_MOTION": 13.4258585, "ECCENTRICITY": 0.00932043, "INCLINATION": 90.0354, "RA_OF_ASC_NODE": 20.6192, "ARG_OF_PERICENTER": 218.7647, "MEAN_ANOMALY": 168.678, "EPHEMERIS_TYPE": 0, "CLASSIFICATION_TYPE": "U", "NORAD_CAT_ID": 19420, "ELEMENT_SET_NO": 999, "REV_AT_EPOCH": 82749, "BSTAR": 0.00014636655, "MEAN_MOTION_DOT": 9.4e-07, "MEAN_MOTION_DDOT": 0}, "tle": {"line1": "1 19420U 88074B   25354.06640123  .00000094  00000+0  14637-3 0  9990", "line2": "2 19420  90.0354  20.6192 0093204 218.7647 168.6780 13.42585850827499"}}, "geometry": {"type": "Point", "coordinates": [-159.33822461460542, 48.93996246339769]}}]}